[{"OBJECT_NAME":"STARLINK-4308","OBJECT_ID":"2022-077U","EPOCH":"2026-03-09T22:42:53.272224","MEAN_MOTION":15.01259327,"ECCENTRICITY":7.509e-5,"INCLINATION":97.6014,"RA_OF_ASC_NODE":250.4609,"ARG_OF_PERICENTER":177.667,"MEAN_ANOMALY":182.4558,"EPHEMERIS_TYPE":0,"CLASSIFICATION_TYPE":"U","NORAD_CAT_ID":53061,"ELEMENT_SET_NO":999,"REV_AT_EPOCH":20095,"BSTAR":-1.7335988e-5,"MEAN_MOTION_DOT":-2.81e-6,"MEAN_MOTION_DDOT":0},{"OBJECT_NAME":"RAPIDEYE 1","OBJECT_ID":"2008-040C","EPOCH":"2026-03-09T15:08:44.758176","MEAN_MOTION":15.03049091,"ECCENTRICITY":0.0028174,"INCLINATION":97.4223,"RA_OF_ASC_NODE":100.7722,"ARG_OF_PERICENTER":157.1968,"MEAN_ANOMALY":203.0516,"EPHEMERIS_TYPE":0,"CLASSIFICATION_TYPE":"U","NORAD_CAT_ID":33314,"ELEMENT_SET_NO":999,"REV_AT_EPOCH":95070,"BSTAR":0.00023277,"MEAN_MOTION_DOT":3.104e-5,"MEAN_MOTION_DDOT":0}]
